<?xml version="1.0" encoding="utf-8"?>
<ndm xmlns:xsi="http://www.w3.org/2001/XMLSchema-instance" xsi:noNamespaceSchemaLocation="http://sanaregistry.org/r/ndmxml/ndmxml-1.0-master.xsd"><omm id="CCSDS_OMM_VERS" version="2.0"><header><COMMENT>GENERATED VIA SPACE-TRACK.ORG API</COMMENT><CREATION_DATE>2019-06-30T06:20:17</CREATION_DATE><ORIGINATOR>18 SPCS</ORIGINATOR></header><body><segment><metadata><OBJECT_NAME>SEAHAWK-1</OBJECT_NAME><OBJECT_ID>2018-099BQ</OBJECT_ID><CENTER_NAME>EARTH</CENTER_NAME><REF_FRAME>TEME</REF_FRAME><TIME_SYSTEM>UTC</TIME_SYSTEM><MEAN_ELEMENT_THEORY>SGP4</MEAN_ELEMENT_THEORY></metadata><data><meanElements><EPOCH>2019-06-30T04:41:14.477280</EPOCH><MEAN_MOTION>14.95391409</MEAN_MOTION><ECCENTRICITY>0.00111860</ECCENTRICITY><INCLINATION>97.7390</INCLINATION><RA_OF_ASC_NODE>252.9759</RA_OF_ASC_NODE><ARG_OF_PERICENTER>283.3621</ARG_OF_PERICENTER><MEAN_ANOMALY>76.6352</MEAN_ANOMALY></meanElements><tleParameters><EPHEMERIS_TYPE>0</EPHEMERIS_TYPE><CLASSIFICATION_TYPE>U</CLASSIFICATION_TYPE><NORAD_CAT_ID>43820</NORAD_CAT_ID><ELEMENT_SET_NO>999</ELEMENT_SET_NO><REV_AT_EPOCH>3054</REV_AT_EPOCH><BSTAR>0.00001500000000</BSTAR><MEAN_MOTION_DOT>0.00000108</MEAN_MOTION_DOT><MEAN_MOTION_DDOT>0.0000000000000</MEAN_MOTION_DDOT></tleParameters><userDefinedParameters><USER_DEFINED parameter="SEMIMAJOR_AXIS">6959.295</USER_DEFINED><USER_DEFINED parameter="PERIOD">96.295</USER_DEFINED><USER_DEFINED parameter="APOAPSIS">588.944</USER_DEFINED><USER_DEFINED parameter="PERIAPSIS">573.375</USER_DEFINED><USER_DEFINED parameter="OBJECT_TYPE">PAYLOAD</USER_DEFINED><USER_DEFINED parameter="RCS_SIZE">SMALL</USER_DEFINED><USER_DEFINED parameter="COUNTRY_CODE">US</USER_DEFINED><USER_DEFINED parameter="LAUNCH_DATE">2018-12-03</USER_DEFINED><USER_DEFINED parameter="SITE">AFWTR</USER_DEFINED><USER_DEFINED parameter="DECAY_DATE"/><USER_DEFINED parameter="FILE">2502702</USER_DEFINED><USER_DEFINED parameter="GP_ID">134257365</USER_DEFINED></userDefinedParameters></data></segment></body></omm><omm id="CCSDS_OMM_VERS" version="2.0"><header><COMMENT>GENERATED VIA SPACE-TRACK.ORG API</COMMENT><CREATION_DATE>2019-06-30T14:30:17</CREATION_DATE><ORIGINATOR>18 SPCS</ORIGINATOR></header><body><segment><metadata><OBJECT_NAME>SEAHAWK-1</OBJECT_NAME><OBJECT_ID>2018-099BQ</OBJECT_ID><CENTER_NAME>EARTH</CENTER_NAME><REF_FRAME>TEME</REF_FRAME><TIME_SYSTEM>UTC</TIME_SYSTEM><MEAN_ELEMENT_THEORY>SGP4</MEAN_ELEMENT_THEORY></metadata><data><meanElements><EPOCH>2019-06-30T11:06:39.838176</EPOCH><MEAN_MOTION>14.95391460</MEAN_MOTION><ECCENTRICITY>0.00111730</ECCENTRICITY><INCLINATION>97.7391</INCLINATION><RA_OF_ASC_NODE>253.2402</RA_OF_ASC_NODE><ARG_OF_PERICENTER>282.3413</ARG_OF_PERICENTER><MEAN_ANOMALY>77.6557</MEAN_ANOMALY></meanElements><tleParameters><EPHEMERIS_TYPE>0</EPHEMERIS_TYPE><CLASSIFICATION_TYPE>U</CLASSIFICATION_TYPE><NORAD_CAT_ID>43820</NORAD_CAT_ID><ELEMENT_SET_NO>999</ELEMENT_SET_NO><REV_AT_EPOCH>3058</REV_AT_EPOCH><BSTAR>0.00001767500000</BSTAR><MEAN_MOTION_DOT>0.00000137</MEAN_MOTION_DOT><MEAN_MOTION_DDOT>0.0000000000000</MEAN_MOTION_DDOT></tleParameters><userDefinedParameters><USER_DEFINED parameter="SEMIMAJOR_AXIS">6959.294</USER_DEFINED><USER_DEFINED parameter="PERIOD">96.295</USER_DEFINED><USER_DEFINED parameter="APOAPSIS">588.935</USER_DEFINED><USER_DEFINED parameter="PERIAPSIS">573.384</USER_DEFINED><USER_DEFINED parameter="OBJECT_TYPE">PAYLOAD</USER_DEFINED><USER_DEFINED parameter="RCS_SIZE">SMALL</USER_DEFINED><USER_DEFINED parameter="COUNTRY_CODE">US</USER_DEFINED><USER_DEFINED parameter="LAUNCH_DATE">2018-12-03</USER_DEFINED><USER_DEFINED parameter="SITE">AFWTR</USER_DEFINED><USER_DEFINED parameter="DECAY_DATE"/><USER_DEFINED parameter="FILE">2502884</USER_DEFINED><USER_DEFINED parameter="GP_ID">134260922</USER_DEFINED></userDefinedParameters></data></segment></body></omm><omm id="CCSDS_OMM_VERS" version="2.0"><header><COMMENT>GENERATED VIA SPACE-TRACK.ORG API</COMMENT><CREATION_DATE>2019-06-30T22:30:17</CREATION_DATE><ORIGINATOR>18 SPCS</ORIGINATOR></header><body><segment><metadata><OBJECT_NAME>SEAHAWK-1</OBJECT_NAME><OBJECT_ID>2018-099BQ</OBJECT_ID><CENTER_NAME>EARTH</CENTER_NAME><REF_FRAME>TEME</REF_FRAME><TIME_SYSTEM>UTC</TIME_SYSTEM><MEAN_ELEMENT_THEORY>SGP4</MEAN_ELEMENT_THEORY></metadata><data><meanElements><EPOCH>2019-06-30T19:08:26.537568</EPOCH><MEAN_MOTION>14.95391548</MEAN_MOTION><ECCENTRICITY>0.00111610</ECCENTRICITY><INCLINATION>97.7390</INCLINATION><RA_OF_ASC_NODE>253.5706</RA_OF_ASC_NODE><ARG_OF_PERICENTER>281.0456</ARG_OF_PERICENTER><MEAN_ANOMALY>78.9509</MEAN_ANOMALY></meanElements><tleParameters><EPHEMERIS_TYPE>0</EPHEMERIS_TYPE><CLASSIFICATION_TYPE>U</CLASSIFICATION_TYPE><NORAD_CAT_ID>43820</NORAD_CAT_ID><ELEMENT_SET_NO>999</ELEMENT_SET_NO><REV_AT_EPOCH>3063</REV_AT_EPOCH><BSTAR>0.00002076900000</BSTAR><MEAN_MOTION_DOT>0.00000172</MEAN_MOTION_DOT><MEAN_MOTION_DDOT>0.0000000000000</MEAN_MOTION_DDOT></tleParameters><userDefinedParameters><USER_DEFINED parameter="SEMIMAJOR_AXIS">6959.294</USER_DEFINED><USER_DEFINED parameter="PERIOD">96.295</USER_DEFINED><USER_DEFINED parameter="APOAPSIS">588.926</USER_DEFINED><USER_DEFINED parameter="PERIAPSIS">573.392</USER_DEFINED><USER_DEFINED parameter="OBJECT_TYPE">PAYLOAD</USER_DEFINED><USER_DEFINED parameter="RCS_SIZE">SMALL</USER_DEFINED><USER_DEFINED parameter="COUNTRY_CODE">US</USER_DEFINED><USER_DEFINED parameter="LAUNCH_DATE">2018-12-03</USER_DEFINED><USER_DEFINED parameter="SITE">AFWTR</USER_DEFINED><USER_DEFINED parameter="DECAY_DATE"/><USER_DEFINED parameter="FILE">2503094</USER_DEFINED><USER_DEFINED parameter="GP_ID">134303335</USER_DEFINED></userDefinedParameters></data></segment></body></omm></ndm>
