0 SEAHAWK-1
1 43820U 18099BQ  19181.79752937  .00000172  00000-0  20769-4 0  9991
2 43820  97.7390 253.5706 0011161 281.0456  78.9509 14.95391548 30637
0 SEAHAWK-1
1 43820U 18099BQ  19181.46296109  .00000137  00000-0  17675-4 0  9992
2 43820  97.7391 253.2402 0011173 282.3413  77.6557 14.95391460 30584
0 SEAHAWK-1
1 43820U 18099BQ  19181.19530645  .00000108  00000-0  15000-4 0  9996
2 43820  97.7390 252.9759 0011186 283.3621  76.6352 14.95391409 30541
